STARLINK-1453
1 15670C 20035P   21326.15328839  .00008690  00000-0  58213-3 0  3264
2 15670  53.0519 238.0500 0002059  69.3369  34.6920 15.06394045    19
